{"type": "FeatureCollection", "features": [ {"type": "Feature", "properties": {"norad_id": 36074, "name": "COSMOS 2251 DEB", "group": "cosmos-2251-debris", "lat": 29.407358209280538, "lon": 146.42413053726463, "alt_km": 739.7866221613303, "timestamp": "2025-12-15T07:02:38.012047+00:00", "meta": {"OBJECT_NAME": "COSMOS 2251 DEB", "OBJECT_ID": "1993-036AYM", "EPOCH": "2025-12-04T07:35:54.379968", "MEAN_MOTION": 14.43651509, "ECCENTRICITY": 0.0041318, "INCLINATION": 73.9929, "RA_OF_ASC_NODE": 356.1864, "ARG_OF_PERICENTER": 90.6412, "MEAN_ANOMALY": 269.9479, "EPHEMERIS_TYPE": 0, "CLASSIFICATION_TYPE": "U", "NORAD_CAT_ID": 36074, "ELEMENT_SET_NO": 999, "REV_AT_EPOCH": 85788, "BSTAR": 0.0017767, "MEAN_MOTION_DOT": 6.071e-05, "MEAN_MOTION_DDOT": 0}, "tle": {"line1": "1 36074U 93036AYM 25338.31660162  .00006071  00000+0  17767-2 0  9990", "line2": "2 36074  73.9929 356.1864 0041318  90.6412 269.9479 14.43651509857883"}}, "geometry": {"type": "Point", "coordinates": [146.42413053726463, 29.407358209280538]}}, {"type": "Feature", "properties": {"norad_id": 36366, "name": "COSMOS 2251 DEB", "group": "cosmos-2251-debris", "lat": -10.825031253684854, "lon": -94.72659066463565, "alt_km": 744.5249045811106, "timestamp": "2025-12-15T07:02:38.012057+00:00", "meta": {"OBJECT_NAME": "COSMOS 2251 DEB", "OBJECT_ID": "1993-036AYT", "EPOCH": "2025-12-14T10:59:45.440448", "MEAN_MOTION": 14.33413986, "ECCENTRICITY": 0.00904998, "INCLINATION": 74.0651, "RA_OF_ASC_NODE": 269.929, "ARG_OF_PERICENTER": 297.9543, "MEAN_ANOMALY": 61.2469, "EPHEMERIS_TYPE": 0, "CLASSIFICATION_TYPE": "U", "NORAD_CAT_ID": 36366, "ELEMENT_SET_NO": 999, "REV_AT_EPOCH": 86313, "BSTAR": 0.0019589363, "MEAN_MOTION_DOT": 5.636e-05, "MEAN_MOTION_DDOT": 0}, "tle": {"line1": "1 36366U 93036AYT 25348.45816482  .00005636  00000+0  19589-2 0  9998", "line2": "2 36366  74.0651 269.9290 0090499 297.9543  61.2469 14.33413986863137"}}, "geometry": {"type": "Point", "coordinates": [-94.72659066463565, -10.825031253684854]}}, {"type": "Feature", "properties": {"norad_id": 36367, "name": "COSMOS 2251 DEB", "group": "cosmos-2251-debris", "lat": -44.79427569137614, "lon": -149.32207158808245, "alt_km": 760.7961989008691, "timestamp": "2025-12-15T07:02:38.012067+00:00", "meta": {"OBJECT_NAME": "COSMOS 2251 DEB", "OBJECT_ID": "1993-036AYU", "EPOCH": "2025-12-11T01:04:58.660896", "MEAN_MOTION": 13.86314595, "ECCENTRICITY": 0.02625211, "INCLINATION": 74.1007, "RA_OF_ASC_NODE": 234.2792, "ARG_OF_PERICENTER": 307.5422, "MEAN_ANOMALY": 50.2108, "EPHEMERIS_TYPE": 0, "CLASSIFICATION_TYPE": "U", "NORAD_CAT_ID": 36367, "ELEMENT_SET_NO": 999, "REV_AT_EPOCH": 57506, "BSTAR": 0.0022824489, "MEAN_MOTION_DOT": 3.437e-05, "MEAN_MOTION_DDOT": 0}, "tle": {"line1": "1 36367U 93036AYU 25345.04512339  .00003437  00000+0  22824-2 0  9998", "line2": "2 36367  74.1007 234.2792 0262521 307.5422  50.2108 13.86314595575060"}}, "geometry": {"type": "Point", "coordinates": [-149.32207158808245, -44.79427569137614]}}, {"type": "Feature", "properties": {"norad_id": 36369, "name": "COSMOS 2251 DEB", "group": "cosmos-2251-debris", "lat": -14.030516220821564, "lon": -110.14698269331306, "alt_km": 648.8120617921095, "timestamp": "2025-12-15T07:02:38.012077+00:00", "meta": {"OBJECT_NAME": "COSMOS 2251 DEB", "OBJECT_ID": "1993-036AYW", "EPOCH": "2025-12-13T11:48:09.562176", "MEAN_MOTION": 14.73593845, "ECCENTRICITY": 0.00111215, "INCLINATION": 74.0315, "RA_OF_ASC_NODE": 69.2624, "ARG_OF_PERICENTER": 147.3699, "MEAN_ANOMALY": 212.8163, "EPHEMERIS_TYPE": 0, "CLASSIFICATION_TYPE": "U", "NORAD_CAT_ID": 36369, "ELEMENT_SET_NO": 999, "REV_AT_EPOCH": 85933, "BSTAR": 0.0023523772, "MEAN_MOTION_DOT": 0.00015337, "MEAN_MOTION_DDOT": 0}, "tle": {"line1": "1 36369U 93036AYW 25347.49177734  .00015337  00000+0  23524-2 0  9997", "line2": "2 36369  74.0315  69.2624 0011121 147.3699 212.8163 14.73593845859333"}}, "geometry": {"type": "Point", "coordinates": [-110.14698269331306, -14.030516220821564]}}, {"type": "Feature", "properties": {"norad_id": 36371, "name": "COSMOS 2251 DEB", "group": "cosmos-2251-debris", "lat": 69.47593360008024, "lon": -153.44781653290084, "alt_km": 655.0219089408338, "timestamp": "2025-12-15T07:02:38.012088+00:00", "meta": {"OBJECT_NAME": "COSMOS 2251 DEB", "OBJECT_ID": "1993-036AYY", "EPOCH": "2025-12-14T17:38:02.083776", "MEAN_MOTION": 14.70655983, "ECCENTRICITY": 0.00095601, "INCLINATION": 74.0125, "RA_OF_ASC_NODE": 157.6564, "ARG_OF_PERICENTER": 196.4199, "MEAN_ANOMALY": 163.6664, "EPHEMERIS_TYPE": 0, "CLASSIFICATION_TYPE": "U", "NORAD_CAT_ID": 36371, "ELEMENT_SET_NO": 999, "REV_AT_EPOCH": 71474, "BSTAR": 0.001555296, "MEAN_MOTION_DOT": 9.456e-05, "MEAN_MOTION_DDOT": 0}, "tle": {"line1": "1 36371U 93036AYY 25348.73474634  .00009456  00000+0  15553-2 0  9995", "line2": "2 36371  74.0125 157.6564 0009560 196.4199 163.6664 14.70655983714747"}}, "geometry": {"type": "Point", "coordinates": [-153.44781653290084, 69.47593360008024]}}, {"type": "Feature", "properties": {"norad_id": 36379, "name": "COSMOS 2251 DEB", "group": "cosmos-2251-debris", "lat": -70.12097372862831, "lon": -110.32838976176298, "alt_km": 805.548166084599, "timestamp": "2025-12-15T07:02:38.012098+00:00", "meta": {"OBJECT_NAME": "COSMOS 2251 DEB", "OBJECT_ID": "1993-036AZG", "EPOCH": "2025-12-14T15:32:01.694112", "MEAN_MOTION": 14.36082107, "ECCENTRICITY": 0.00446626, "INCLINATION": 74.0126, "RA_OF_ASC_NODE": 303.3155, "ARG_OF_PERICENTER": 71.6898, "MEAN_ANOMALY": 110.8401, "EPHEMERIS_TYPE": 0, "CLASSIFICATION_TYPE": "U", "NORAD_CAT_ID": 36379, "ELEMENT_SET_NO": 999, "REV_AT_EPOCH": 64855, "BSTAR": 0.00036106719, "MEAN_MOTION_DOT": 1.037e-05, "MEAN_MOTION_DDOT": 0}, "tle": {"line1": "1 36379U 93036AZG 25348.64724183  .00001037  00000+0  36107-3 0  9996", "line2": "2 36379  74.0126 303.3155 0044662  71.6898 110.8401 14.36082107648556"}}, "geometry": {"type": "Point", "coordinates": [-110.32838976176298, -70.12097372862831]}}, {"type": "Feature", "properties": {"norad_id": 36385, "name": "COSMOS 2251 DEB", "group": "cosmos-2251-debris", "lat": -26.367922697074206, "lon": -22.260407392474843, "alt_km": 700.3907359754139, "timestamp": "2025-12-15T07:02:38.012108+00:00", "meta": {"OBJECT_NAME": "COSMOS 2251 DEB", "OBJECT_ID": "1993-036AZN", "EPOCH": "2025-12-14T12:09:34.420896", "MEAN_MOTION": 14.72609971, "ECCENTRICITY": 0.0141345, "INCLINATION": 73.9693, "RA_OF_ASC_NODE": 151.0837, "ARG_OF_PERICENTER": 325.0853, "MEAN_ANOMALY": 34.1107, "EPHEMERIS_TYPE": 0, "CLASSIFICATION_TYPE": "U", "NORAD_CAT_ID": 36385, "ELEMENT_SET_NO": 999, "REV_AT_EPOCH": 85128, "BSTAR": 0.001300457, "MEAN_MOTION_DOT": 9.676e-05, "MEAN_MOTION_DDOT": 0}, "tle": {"line1": "1 36385U 93036AZN 25348.50664839  .00009676  00000+0  13005-2 0  9997", "line2": "2 36385  73.9693 151.0837 0141345 325.0853  34.1107 14.72609971851289"}}, "geometry": {"type": "Point", "coordinates": [-22.260407392474843, -26.367922697074206]}}, {"type": "Feature", "properties": {"norad_id": 36420, "name": "COSMOS 2251 DEB", "group": "cosmos-2251-debris", "lat": 10.33370172126102, "lon": 87.79782308380014, "alt_km": 782.5750396015947, "timestamp": "2025-12-15T07:02:38.012119+00:00", "meta": {"OBJECT_NAME": "COSMOS 2251 DEB", "OBJECT_ID": "1993-036AZT", "EPOCH": "2025-12-09T05:12:09.080064", "MEAN_MOTION": 14.36895704, "ECCENTRICITY": 0.001793, "INCLINATION": 74.0374, "RA_OF_ASC_NODE": 281.9559, "ARG_OF_PERICENTER": 10.5601, "MEAN_ANOMALY": 57.255, "EPHEMERIS_TYPE": 0, "CLASSIFICATION_TYPE": "U", "NORAD_CAT_ID": 36420, "ELEMENT_SET_NO": 999, "REV_AT_EPOCH": 84986, "BSTAR": 0.00029505, "MEAN_MOTION_DOT": 8.48e-06, "MEAN_MOTION_DDOT": 0}, "tle": {"line1": "1 36420U 93036AZT 25343.21677176  .00000848  00000+0  29505-3 0  9993", "line2": "2 36420  74.0374 281.9559 0017930  10.5601  57.2550 14.36895704849860"}}, "geometry": {"type": "Point", "coordinates": [87.79782308380014, 10.33370172126102]}}, {"type": "Feature", "properties": {"norad_id": 36430, "name": "COSMOS 2251 DEB", "group": "cosmos-2251-debris", "lat": 67.77273692237705, "lon": -120.68838408788987, "alt_km": 850.9015625712809, "timestamp": "2025-12-15T07:02:38.012130+00:00", "meta": {"OBJECT_NAME": "COSMOS 2251 DEB", "OBJECT_ID": "1993-036BAD", "EPOCH": "2025-12-07T15:14:59.696160", "MEAN_MOTION": 14.27773173, "ECCENTRICITY": 0.00973352, "INCLINATION": 74.0036, "RA_OF_ASC_NODE": 117.7938, "ARG_OF_PERICENTER": 268.8676, "MEAN_ANOMALY": 90.1319, "EPHEMERIS_TYPE": 0, "CLASSIFICATION_TYPE": "U", "NORAD_CAT_ID": 36430, "ELEMENT_SET_NO": 999, "REV_AT_EPOCH": 64484, "BSTAR": 0.00083938099, "MEAN_MOTION_DOT": 2.154e-05, "MEAN_MOTION_DDOT": 0}, "tle": {"line1": "1 36430U 93036BAD 25341.63541315  .00002154  00000+0  83938-3 0  9995", "line2": "2 36430  74.0036 117.7938 0097335 268.8676  90.1319 14.27773173644845"}}, "geometry": {"type": "Point", "coordinates": [-120.68838408788987, 67.77273692237705]}}, {"type": "Feature", "properties": {"norad_id": 36437, "name": "COSMOS 2251 DEB", "group": "cosmos-2251-debris", "lat": 32.63861812815223, "lon": -161.61590210371136, "alt_km": 663.1401995872548, "timestamp": "2025-12-15T07:02:38.012140+00:00", "meta": {"OBJECT_NAME": "COSMOS 2251 DEB", "OBJECT_ID": "1993-036BAL", "EPOCH": "2025-12-14T09:09:30.905280", "MEAN_MOTION": 14.70733296, "ECCENTRICITY": 0.00232569, "INCLINATION": 73.9432, "RA_OF_ASC_NODE": 30.7933, "ARG_OF_PERICENTER": 262.2827, "MEAN_ANOMALY": 97.5703, "EPHEMERIS_TYPE": 0, "CLASSIFICATION_TYPE": "U", "NORAD_CAT_ID": 36437, "ELEMENT_SET_NO": 999, "REV_AT_EPOCH": 66075, "BSTAR": 0.0015477574, "MEAN_MOTION_DOT": 9.458e-05, "MEAN_MOTION_DDOT": 0}, "tle": {"line1": "1 36437U 93036BAL 25348.38160770  .00009458  00000+0  15478-2 0  9990", "line2": "2 36437  73.9432  30.7933 0023256 262.2827  97.5703 14.70733296660752"}}, "geometry": {"type": "Point", "coordinates": [-161.61590210371136, 32.63861812815223]}}]}